NAYIF-1 (EO-88)         
1 42017U 17008BX  20106.68185137  .00001595  00000-0  64212-4 0  9997
2 42017  97.3647 175.1502 0006486 168.7189 191.4196 15.26321463175970
MAX VALIER SAT          
1 42778U 17036P   20106.77617500  .00000897  00000-0  41626-4 0  9994
2 42778  97.3119 162.1253 0010746 238.0051 122.0142 15.22507983156193
RADFXSAT (FOX-1B)       
1 43017U 17073E   20106.73667733  .00000354  00000-0  33624-4 0  9998
2 43017  97.7249  21.3875 0255693 254.6389 102.6440 14.78881638129898
FOX-1D (AO-92)          
1 43137U 18004AC  20106.65137242  .00001003  00000-0  44380-4 0  9997
2 43137  97.4498 178.2277 0007497 277.6239  82.4146 15.24003546125483
DIWATA-2B               
1 43678U 18084H   20107.08784042  .00000171  00000-0  22711-4 0  9998
2 43678  97.8741 225.5278 0010729  31.1999 328.9880 14.91619684 79720
ES'HAIL 2               
1 43700U 18090A   20106.74960521  .00000125  00000-0  00000-0 0  9993
2 43700   0.0191 133.7530 0002654 288.0108  78.2373  1.00272369  5086
FOX-1CLIFF (AO-95)      
1 43770U 18099N   20106.72596296  .00000166  00000-0  20402-4 0  9998
2 43770  97.7095 179.1878 0015629  50.8773 309.3835 14.94948179 74541
ITASAT 1                
1 43786U 18099AE  20106.73722054  .00000451  00000-0  46076-4 0  9991
2 43786  97.7110 179.5733 0016127  44.9913 315.2611 14.95293097 74567
JY1SAT (JO-97)          
1 43803U 18099AX  20107.22736600  .00001063  00000-0  10110-3 0  9997
2 43803  97.7078 179.8893 0016230  44.8900 315.3612 14.95467968 74630
PSAT2 (NO-104)          
1 44354U 19036R   20106.57586903  .00018904  00000-0  28253-3 0  9996
2 44354  28.5313  73.2746 0368406 359.9766   0.0770 15.02392743 44351
BRICSAT2 (NO-103)       
1 44355U 19036S   20106.59341499  .00035215  00000-0  50808-3 0  9993
2 44355  28.5312  67.5696 0350985   9.2478 351.4377 15.06793969 44411
JAISAT-1                
1 44419U 19038F   20106.84772718  .00001028  00000-0  62259-4 0  9995
2 44419  97.5324  69.2060 0021418 351.1886   8.8965 15.12683594 43136
DUCHIFAT-3              
1 44854U 19089C   20107.14844919  .00000346  00000-0  34382-4 0  9999
2 44854  36.9671 106.5489 0009161 282.1699  77.8030 14.99022395 18947
ORBITAL FACTORY 2 (OF-2)
1 45113U 19071C   20106.84725974  .00001711  00000-0  64199-4 0  9990
2 45113  51.6430 305.9306 0013086 189.0973 170.9774 15.33113908 11524
HUSKYSAT-1              
1 45119U 19071J   20106.83496937  .00002261  00000-0  80527-4 0  9993
2 45119  51.6426 305.8492 0012407 185.2670 174.8184 15.33352830 11514
